[{"OBJECT_NAME":"SDS-4","OBJECT_ID":"2012-025C","EPOCH":"2026-03-09T22:00:42.096096","MEAN_MOTION":14.75631591,"ECCENTRICITY":0.00056029,"INCLINATION":98.1333,"RA_OF_ASC_NODE":164.2362,"ARG_OF_PERICENTER":252.4969,"MEAN_ANOMALY":107.5627,"EPHEMERIS_TYPE":0,"CLASSIFICATION_TYPE":"U","NORAD_CAT_ID":38339,"ELEMENT_SET_NO":999,"REV_AT_EPOCH":74134,"BSTAR":0.00023374761,"MEAN_MOTION_DOT":1.543e-5,"MEAN_MOTION_DDOT":0},{"OBJECT_NAME":"ENMAP","OBJECT_ID":"2022-033C","EPOCH":"2026-03-09T22:00:43.226208","MEAN_MOTION":14.74967625,"ECCENTRICITY":0.00010636,"INCLINATION":97.9792,"RA_OF_ASC_NODE":152.5765,"ARG_OF_PERICENTER":93.4267,"MEAN_ANOMALY":266.7063,"EPHEMERIS_TYPE":0,"CLASSIFICATION_TYPE":"U","NORAD_CAT_ID":52159,"ELEMENT_SET_NO":999,"REV_AT_EPOCH":21202,"BSTAR":5.7736752e-5,"MEAN_MOTION_DOT":3.38e-6,"MEAN_MOTION_DDOT":0}]
